[{"OBJECT_NAME":"IRIDIUM 114","OBJECT_ID":"2017-003G","EPOCH":"2026-03-09T17:25:34.142304","MEAN_MOTION":14.34217503,"ECCENTRICITY":0.00021341,"INCLINATION":86.3979,"RA_OF_ASC_NODE":130.0546,"ARG_OF_PERICENTER":90.4305,"MEAN_ANOMALY":269.7135,"EPHEMERIS_TYPE":0,"CLASSIFICATION_TYPE":"U","NORAD_CAT_ID":41923,"ELEMENT_SET_NO":999,"REV_AT_EPOCH":47899,"BSTAR":9.4657235e-5,"MEAN_MOTION_DOT":2.85e-6,"MEAN_MOTION_DDOT":0},{"OBJECT_NAME":"ORBCOMM FM03","OBJECT_ID":"1998-007B","EPOCH":"2026-03-09T14:31:08.283072","MEAN_MOTION":14.35302941,"ECCENTRICITY":0.0043027,"INCLINATION":107.9629,"RA_OF_ASC_NODE":321.1328,"ARG_OF_PERICENTER":145.7145,"MEAN_ANOMALY":214.6785,"EPHEMERIS_TYPE":0,"CLASSIFICATION_TYPE":"U","NORAD_CAT_ID":25158,"ELEMENT_SET_NO":999,"REV_AT_EPOCH":46211,"BSTAR":0.00048033,"MEAN_MOTION_DOT":1.26e-5,"MEAN_MOTION_DDOT":0}]
